{
    "week": 293,
    "satellites": [
        {
            "Name": "BEIDOU-3 M13 (C32)",
            "Line1": "1 43622U 18072A   24327.67929379 -.00000017  00000+0  00000+0 0  9992",
            "Line2": "2 43622  56.1256  81.5996 0004953 291.2555  68.6787  1.86231119 42013",
            "SatelliteNumber": "43622",
            "Classification": "U",
            "LaunchYear": "18",
            "LaunchNumber": "072",
            "PieceOfLaunch": "A",
            "EpochYear": "24",
            "EpochDay": 327.67929379,
            "FirstDerivativeMeanMotion": -1.7e-07,
            "SecondDerivativeMeanMotion": "00000+0",
            "BSTAR": "00000+0",
            "SetNumber": "999",
            "Inclination": 56.1256,
            "RAAN": 81.5996,
            "Eccentricity": 0.0004953,
            "ArgumentOfPerigee": 291.2555,
            "MeanAnomaly": 68.6787,
            "MeanMotion": 1.86231119,
            "RevolutionNumber": "4201"
        },
        {
            "Name": "BEIDOU-3 M14 (C33)",
            "Line1": "1 43623U 18072B   24327.00780712 -.00000016  00000+0  00000+0 0  9995",
            "Line2": "2 43623  56.1270  81.6153 0002484 333.9052  26.0686  1.86231069 41995",
            "SatelliteNumber": "43623",
            "Classification": "U",
            "LaunchYear": "18",
            "LaunchNumber": "072",
            "PieceOfLaunch": "B",
            "EpochYear": "24",
            "EpochDay": 327.00780712,
            "FirstDerivativeMeanMotion": -1.6e-07,
            "SecondDerivativeMeanMotion": "00000+0",
            "BSTAR": "00000+0",
            "SetNumber": "999",
            "Inclination": 56.127,
            "RAAN": 81.6153,
            "Eccentricity": 0.0002484,
            "ArgumentOfPerigee": 333.9052,
            "MeanAnomaly": 26.0686,
            "MeanMotion": 1.86231069,
            "RevolutionNumber": "4199"
        },
        {
            "Name": "BEIDOU-3 M16 (C35)",
            "Line1": "1 43647U 18078A   24327.16953309 -.00000075  00000+0  00000+0 0  9993",
            "Line2": "2 43647  54.5934 319.9555 0006700   7.3267 352.6898  1.86232311 41509",
            "SatelliteNumber": "43647",
            "Classification": "U",
            "LaunchYear": "18",
            "LaunchNumber": "078",
            "PieceOfLaunch": "A",
            "EpochYear": "24",
            "EpochDay": 327.16953309,
            "FirstDerivativeMeanMotion": -7.5e-07,
            "SecondDerivativeMeanMotion": "00000+0",
            "BSTAR": "00000+0",
            "SetNumber": "999",
            "Inclination": 54.5934,
            "RAAN": 319.9555,
            "Eccentricity": 0.00067,
            "ArgumentOfPerigee": 7.3267,
            "MeanAnomaly": 352.6898,
            "MeanMotion": 1.86232311,
            "RevolutionNumber": "4150"
        },
        {
            "Name": "BEIDOU-3 M15 (C34)",
            "Line1": "1 43648U 18078B   24327.29866818 -.00000075  00000+0  00000+0 0  9996",
            "Line2": "2 43648  54.5890 319.9533 0003419   3.1698 356.8392  1.86232223 41522",
            "SatelliteNumber": "43648",
            "Classification": "U",
            "LaunchYear": "18",
            "LaunchNumber": "078",
            "PieceOfLaunch": "B",
            "EpochYear": "24",
            "EpochDay": 327.29866818,
            "FirstDerivativeMeanMotion": -7.5e-07,
            "SecondDerivativeMeanMotion": "00000+0",
            "BSTAR": "00000+0",
            "SetNumber": "999",
            "Inclination": 54.589,
            "RAAN": 319.9533,
            "Eccentricity": 0.0003419,
            "ArgumentOfPerigee": 3.1698,
            "MeanAnomaly": 356.8392,
            "MeanMotion": 1.86232223,
            "RevolutionNumber": "4152"
        },
        {
            "Name": "BEIDOU-3 G1 (C59)",
            "Line1": "1 43683U 18085A   24327.56195178 -.00000272  00000+0  00000+0 0  9996",
            "Line2": "2 43683   2.5835 103.9477 0001508  58.5249 241.9300  1.00270850 22328",
            "SatelliteNumber": "43683",
            "Classification": "U",
            "LaunchYear": "18",
            "LaunchNumber": "085",
            "PieceOfLaunch": "A",
            "EpochYear": "24",
            "EpochDay": 327.56195178,
            "FirstDerivativeMeanMotion": -2.72e-06,
            "SecondDerivativeMeanMotion": "00000+0",
            "BSTAR": "00000+0",
            "SetNumber": "999",
            "Inclination": 2.5835,
            "RAAN": 103.9477,
            "Eccentricity": 0.0001508,
            "ArgumentOfPerigee": 58.5249,
            "MeanAnomaly": 241.93,
            "MeanMotion": 1.0027085,
            "RevolutionNumber": "2232"
        },
        {
            "Name": "BEIDOU-3 M17 (C36)",
            "Line1": "1 43706U 18093A   24326.91439435  .00000001  00000+0  00000+0 0  9995",
            "Line2": "2 43706  54.1971 201.7161 0007027 298.1627  61.8481  1.86228485 40880",
            "SatelliteNumber": "43706",
            "Classification": "U",
            "LaunchYear": "18",
            "LaunchNumber": "093",
            "PieceOfLaunch": "A",
            "EpochYear": "24",
            "EpochDay": 326.91439435,
            "FirstDerivativeMeanMotion": 1e-08,
            "SecondDerivativeMeanMotion": "00000+0",
            "BSTAR": "00000+0",
            "SetNumber": "999",
            "Inclination": 54.1971,
            "RAAN": 201.7161,
            "Eccentricity": 0.0007027,
            "ArgumentOfPerigee": 298.1627,
            "MeanAnomaly": 61.8481,
            "MeanMotion": 1.86228485,
            "RevolutionNumber": "4088"
        },
        {
            "Name": "BEIDOU-3 M18 (C37)",
            "Line1": "1 43707U 18093B   24325.70454223  .00000004  00000+0  00000+0 0  9997",
            "Line2": "2 43707  54.1980 201.7489 0006609 336.3748  23.6800  1.86229999 40857",
            "SatelliteNumber": "43707",
            "Classification": "U",
            "LaunchYear": "18",
            "LaunchNumber": "093",
            "PieceOfLaunch": "B",
            "EpochYear": "24",
            "EpochDay": 325.70454223,
            "FirstDerivativeMeanMotion": 4e-08,
            "SecondDerivativeMeanMotion": "00000+0",
            "BSTAR": "00000+0",
            "SetNumber": "999",
            "Inclination": 54.198,
            "RAAN": 201.7489,
            "Eccentricity": 0.0006609,
            "ArgumentOfPerigee": 336.3748,
            "MeanAnomaly": 23.68,
            "MeanMotion": 1.86229999,
            "RevolutionNumber": "4085"
        },
        {
            "Name": "BEIDOU-3 IGSO-1 (C38)",
            "Line1": "1 44204U 19023A   24327.64621023 -.00000230  00000+0  00000+0 0  9995",
            "Line2": "2 44204  57.8771  43.5717 0025069 211.9160 155.9574  1.00254477  1489",
            "SatelliteNumber": "44204",
            "Classification": "U",
            "LaunchYear": "19",
            "LaunchNumber": "023",
            "PieceOfLaunch": "A",
            "EpochYear": "24",
            "EpochDay": 327.64621023,
            "FirstDerivativeMeanMotion": -2.3e-06,
            "SecondDerivativeMeanMotion": "00000+0",
            "BSTAR": "00000+0",
            "SetNumber": "999",
            "Inclination": 57.8771,
            "RAAN": 43.5717,
            "Eccentricity": 0.0025069,
            "ArgumentOfPerigee": 211.916,
            "MeanAnomaly": 155.9574,
            "MeanMotion": 1.00254477,
            "RevolutionNumber": "148"
        },
        {
            "Name": "BEIDOU-2 G8 (C01)",
            "Line1": "1 44231U 19027A   24327.60507976 -.00000243  00000+0  00000+0 0  9999",
            "Line2": "2 44231   1.8711  74.6899 0004969 199.0626 150.6515  1.00268419 20341",
            "SatelliteNumber": "44231",
            "Classification": "U",
            "LaunchYear": "19",
            "LaunchNumber": "027",
            "PieceOfLaunch": "A",
            "EpochYear": "24",
            "EpochDay": 327.60507976,
            "FirstDerivativeMeanMotion": -2.43e-06,
            "SecondDerivativeMeanMotion": "00000+0",
            "BSTAR": "00000+0",
            "SetNumber": "999",
            "Inclination": 1.8711,
            "RAAN": 74.6899,
            "Eccentricity": 0.0004969,
            "ArgumentOfPerigee": 199.0626,
            "MeanAnomaly": 150.6515,
            "MeanMotion": 1.00268419,
            "RevolutionNumber": "2034"
        },
        {
            "Name": "BEIDOU-3 IGSO-2 (C39)",
            "Line1": "1 44337U 19035A   24322.83050358 -.00000064  00000+0  00000+0 0  9993",
            "Line2": "2 44337  55.1861 163.9216 0034767 201.0257 107.1426  1.00249229 19887",
            "SatelliteNumber": "44337",
            "Classification": "U",
            "LaunchYear": "19",
            "LaunchNumber": "035",
            "PieceOfLaunch": "A",
            "EpochYear": "24",
            "EpochDay": 322.83050358,
            "FirstDerivativeMeanMotion": -6.4e-07,
            "SecondDerivativeMeanMotion": "00000+0",
            "BSTAR": "00000+0",
            "SetNumber": "999",
            "Inclination": 55.1861,
            "RAAN": 163.9216,
            "Eccentricity": 0.0034767,
            "ArgumentOfPerigee": 201.0257,
            "MeanAnomaly": 107.1426,
            "MeanMotion": 1.00249229,
            "RevolutionNumber": "1988"
        }
    ]
}